NORAD_CAT_ID,OBJECT_NAME,OBJECT_TYPE,EPOCH,MEAN_MOTION,ECCENTRICITY,INCLINATION,RA_OF_ASC_NODE,ARG_OF_PERICENTER,MEAN_ANOMALY,BSTAR,MEAN_MOTION_DOT,MEAN_MOTION_DDOT,TLE_LINE0,TLE_LINE1,TLE_LINE2,SEMIMAJOR_AXIS,PERIOD,APOGEE,PERIGEE,DECAYED
53140.0,STARLINK-4170,PAYLOAD,2023-10-04 12:14:54,15.08844455,0.0001639,53.2168,196.8233,91.7266,268.3914,0.00015713,2.214e-05,0.0,0 STARLINK-4170,1 53140U 22083J   23277.51035361  .00002214  00000-0  15713-3 0  9992,2 53140  53.2168 196.8233 0001639  91.7266 268.3914 15.08844455 67282,6917.867,95.437,540.866,538.598,0.0
53140.0,STARLINK-4170,PAYLOAD,2023-10-05 00:57:58,15.08866069,0.0001718,53.2161,194.4423,98.0753,262.0434,0.00059726,9.237e-05,0.0,0 STARLINK-4170,1 53140U 22083J   23278.04026419  .00009237  00000-0  59726-3 0  9999,2 53140  53.2161 194.4423 0001718  98.0753 262.0434 15.08866069 67990,6917.801,95.436,540.854,538.477,0.0
53140.0,STARLINK-4170,PAYLOAD,2023-10-05 21:37:59,15.08856784,0.0001766,53.2164,190.578,110.6421,249.4761,0.00029299,4.38e-05,0.0,0 STARLINK-4170,1 53140U 22083J   23278.90138404  .00004380  00000-0  29299-3 0  9998,2 53140  53.2164 190.5780 0001766 110.6421 249.4761 15.08856784 67492,6917.829,95.436,540.916,538.472,0.0
53140.0,STARLINK-4170,PAYLOAD,2023-10-06 00:48:45,15.08858691,0.000128,53.2155,189.9829,103.3518,256.7616,0.00054678,8.429e-05,0.0,0 STARLINK-4170,1 53140U 22083J   23279.03386252  .00008429  00000-0  54678-3 0  9996,2 53140  53.2155 189.9829 0001280 103.3518 256.7616 15.08858691 68147,6917.823,95.436,540.574,538.803,0.0
53140.0,STARLINK-4170,PAYLOAD,2023-10-06 03:59:31,15.08862955,0.0001255,53.2156,189.3881,105.8248,254.2882,0.0007826,0.00012197,0.0,0 STARLINK-4170,1 53140U 22083J   23279.16634064  .00012197  00000-0  78260-3 0  9997,2 53140  53.2156 189.3881 0001255 105.8248 254.2882 15.08862955 67537,6917.81,95.436,540.543,538.807,0.0
53140.0,STARLINK-4170,PAYLOAD,2023-10-06 21:28:47,15.08828582,0.0001514,53.2162,186.1172,106.3273,253.7886,0.00091434,0.00014289,0.0,0 STARLINK-4170,1 53140U 22083J   23279.89499280  .00014289  00000-0  91434-3 0  9998,2 53140  53.2162 186.1172 0001514 106.3273 253.7886 15.08828582 67642,6917.915,95.438,540.828,538.733,0.0
53140.0,STARLINK-4170,PAYLOAD,2023-10-07 00:39:33,15.08835398,0.0001228,53.2162,185.5234,76.8447,283.2683,0.0014147,0.00022296,0.0,0 STARLINK-4170,1 53140U 22083J   23280.02747564  .00022296  00000-0  14147-2 0  9998,2 53140  53.2162 185.5234 0001228  76.8447 283.2683 15.08835398 68298,6917.894,95.438,540.609,538.91,0.0
53140.0,STARLINK-4170,PAYLOAD,2023-10-07 13:22:39,15.08838102,0.0001114,53.2158,183.147,74.9234,285.1882,0.00079754,0.00012427,0.0,0 STARLINK-4170,1 53140U 22083J   23280.55739825  .00012427  00000-0  79754-3 0  9998,2 53140  53.2158 183.1470 0001114  74.9234 285.1882 15.08838102 67743,6917.886,95.438,540.522,538.981,0.0
53140.0,STARLINK-4170,PAYLOAD,2023-10-07 21:19:34,15.0884872,0.0001064,53.2162,181.6608,74.1803,285.9307,0.00086127,0.00013449,0.0,0 STARLINK-4170,1 53140U 22083J   23280.88859681  .00013449  00000-0  86127-3 0  9994,2 53140  53.2162 181.6608 0001064  74.1803 285.9307 15.08848720 67794,6917.854,95.437,540.455,538.983,0.0
53140.0,STARLINK-4170,PAYLOAD,2023-10-08 02:05:43,15.08863316,0.0001199,53.2158,180.7666,97.556,262.5568,0.002117,0.00033586,0.0,0 STARLINK-4170,1 53140U 22083J   23281.08731367  .00033586  00000-0  21170-2 0  9997,2 53140  53.2158 180.7666 0001199  97.5560 262.5568 15.08863316 68453,6917.809,95.436,540.504,538.845,0.0
53140.0,STARLINK-4170,PAYLOAD,2023-10-08 10:02:39,15.08866405,0.0001123,53.2165,179.2795,81.9033,278.2087,0.0011295,0.00017747,0.0,0 STARLINK-4170,1 53140U 22083J   23281.41850941  .00017747  00000-0  11295-2 0  9992,2 53140  53.2165 179.2795 0001123  81.9033 278.2087 15.08866405 68504,6917.8,95.436,540.442,538.888,0.0
53140.0,STARLINK-4170,PAYLOAD,2023-10-08 21:10:21,15.08838519,0.0001413,53.2164,177.1986,86.0765,274.0389,0.00063056,9.761e-05,0.0,0 STARLINK-4170,1 53140U 22083J   23281.88219401  .00009761  00000-0  63056-3 0  9993,2 53140  53.2164 177.1986 0001413  86.0765 274.0389 15.08838519 67943,6917.885,95.438,540.727,538.772,0.0
53140.0,STARLINK-4170,PAYLOAD,2023-10-09 00:21:07,15.08850666,0.0001492,53.2162,176.6056,98.09,262.0262,0.00038727,5.883e-05,0.0,0 STARLINK-4170,1 53140U 22083J   23282.01467135  .00005883  00000-0  38727-3 0  9996,2 53140  53.2162 176.6056 0001492  98.0900 262.0262 15.08850666 68590,6917.848,95.437,540.745,538.681,0.0
53140.0,STARLINK-4170,PAYLOAD,2023-10-09 09:53:26,15.08846036,0.0001451,53.2157,174.8199,83.7359,276.3798,0.00051161,7.865e-05,0.0,0 STARLINK-4170,1 53140U 22083J   23282.41211303  .00007865  00000-0  51161-3 0  9993,2 53140  53.2157 174.8199 0001451  83.7359 276.3798 15.08846036 68022,6917.862,95.437,540.731,538.723,0.0
53140.0,STARLINK-4170,PAYLOAD,2023-10-09 21:01:08,15.08838234,0.0001358,53.2155,172.7383,84.6408,275.4739,0.00051565,7.928e-05,0.0,0 STARLINK-4170,1 53140U 22083J   23282.87579773  .00007928  00000-0  51565-3 0  9999,2 53140  53.2155 172.7383 0001358  84.6408 275.4739 15.08838234 68096,6917.886,95.438,540.69,538.811,0.0
53140.0,STARLINK-4170,PAYLOAD,2023-10-10 01:47:18,15.08851502,0.0001492,53.2157,171.8461,78.6078,281.5082,0.0024109,0.00038302,0.0,0 STARLINK-4170,1 53140U 22083J   23283.07451847  .00038302  00000-0  24109-2 0  9996,2 53140  53.2157 171.8461 0001492  78.6078 281.5082 15.08851502 68755,6917.845,95.437,540.742,538.678,0.0
53140.0,STARLINK-4170,PAYLOAD,2023-10-10 16:05:46,15.08857747,0.0002052,53.2155,169.1709,67.9836,292.1374,0.0015398,0.00024315,0.0,0 STARLINK-4170,1 53140U 22083J   23283.67068125  .00024315  00000-0  15398-2 0  9994,2 53140  53.2155 169.1709 0002052  67.9836 292.1374 15.08857747 68843,6917.826,95.436,541.111,538.272,0.0
53140.0,STARLINK-4170,PAYLOAD,2023-10-10 20:51:55,15.08851927,0.0001295,53.2154,168.2776,105.0283,255.0853,0.00085461,0.00013344,0.0,0 STARLINK-4170,1 53140U 22083J   23283.86939662  .00013344  00000-0  85461-3 0  9997,2 53140  53.2154 168.2776 0001295 105.0283 255.0853 15.08851927 68242,6917.844,95.437,540.605,538.813,0.0
53140.0,STARLINK-4170,PAYLOAD,2023-10-11 09:35:01,15.08841578,0.0001981,53.2162,165.9,76.6261,283.4952,0.00026036,3.858e-05,0.0,0 STARLINK-4170,1 53140U 22083J   23284.39932022  .00003858  00000-0  26036-3 0  9991,2 53140  53.2162 165.9000 0001981  76.6261 283.4952 15.08841578 68950,6917.876,95.437,541.111,538.37,0.0
53140.0,STARLINK-4170,PAYLOAD,2023-10-12 09:25:48,15.08843103,0.0001523,53.2158,161.4388,84.7907,275.3259,0.00058435,9.025e-05,0.0,0 STARLINK-4170,1 53140U 22083J   23285.39292128  .00009025  00000-0  58435-3 0  9998,2 53140  53.2158 161.4388 0001523  84.7907 275.3259 15.08843103 68477,6917.871,95.437,540.789,538.682,0.0
53140.0,STARLINK-4170,PAYLOAD,2023-10-12 20:33:30,15.0884561,0.0001499,53.2157,159.3572,83.6778,276.4385,0.0004503,6.887e-05,0.0,0 STARLINK-4170,1 53140U 22083J   23285.85660110  .00006887  00000-0  45030-3 0  9999,2 53140  53.2157 159.3572 0001499  83.6778 276.4385 15.08845610 69178,6917.863,95.437,540.765,538.691,0.0
53140.0,STARLINK-4170,PAYLOAD,2023-10-12 22:08:53,15.0885011,0.0001517,53.2158,159.0594,87.1112,273.0053,0.00060868,9.415e-05,0.0,0 STARLINK-4170,1 53140U 22083J   23285.92283989  .00009415  00000-0  60868-3 0  9998,2 53140  53.2158 159.0594 0001517  87.1112 273.0053 15.08850110 68559,6917.849,95.437,540.764,538.665,0.0
53140.0,STARLINK-4170,PAYLOAD,2023-10-13 09:16:35,15.08841982,0.0001842,53.2164,156.9769,85.0977,275.0226,0.00017663,2.524e-05,0.0,0 STARLINK-4170,1 53140U 22083J   23286.38652257  .00002524  00000-0  17663-3 0  9996,2 53140  53.2164 156.9769 0001842  85.0977 275.0226 15.08841982 69252,6917.874,95.437,541.014,538.465,0.0
53140.0,STARLINK-4170,PAYLOAD,2023-10-13 21:59:40,15.088524,0.0001495,53.2155,154.5993,81.9442,278.1719,0.0005081,7.81e-05,0.0,0 STARLINK-4170,1 53140U 22083J   23286.91643892  .00007810  00000-0  50810-3 0  9994,2 53140  53.2155 154.5993 0001495  81.9442 278.1719 15.08852400 68708,6917.842,95.437,540.742,538.673,0.0
53140.0,STARLINK-4170,PAYLOAD,2023-10-14 01:10:26,15.08853422,0.0001557,53.2163,154.0035,83.0604,277.0565,0.00067635,0.00010496,0.0,0 STARLINK-4170,1 53140U 22083J   23287.04891815  .00010496  00000-0  67635-3 0  9996,2 53140  53.2163 154.0035 0001557  83.0604 277.0565 15.08853422 69355,6917.839,95.437,540.781,538.627,0.0
53140.0,STARLINK-4170,PAYLOAD,2023-10-14 20:15:04,15.088401,0.0001441,53.2159,150.4347,100.8809,259.2345,0.00019266,2.78e-05,0.0,0 STARLINK-4170,1 53140U 22083J   23287.84380278  .00002780  00000-0  19266-3 0  9994,2 53140  53.2159 150.4347 0001441 100.8809 259.2345 15.08840100 69473,6917.88,95.438,540.742,538.748,0.0
53140.0,STARLINK-4170,PAYLOAD,2023-10-14 21:50:27,15.08834121,0.0001199,53.216,150.1358,92.6438,267.4692,0.0001168,1.571e-05,0.0,0 STARLINK-4170,1 53140U 22083J   23287.91004428  .00001571  00000-0  11680-3 0  9991,2 53140  53.2160 150.1358 0001199  92.6438 267.4692 15.08834121 68853,6917.898,95.438,540.593,538.934,0.0
53140.0,STARLINK-4170,PAYLOAD,2023-10-15 07:22:46,15.08832061,0.0001241,53.2162,148.3539,96.1659,263.9475,5.1944e-05,5.39e-06,0.0,0 STARLINK-4170,1 53140U 22083J   23288.30748747  .00000539  00000-0  51944-4 0  9995,2 53140  53.2162 148.3539 0001241  96.1659 263.9475 15.08832061 69545,6917.905,95.438,540.628,538.911,0.0
53140.0,STARLINK-4170,PAYLOAD,2023-10-15 20:05:51,15.0884399,0.0001292,53.2162,145.9748,91.1418,268.9722,0.00027257,4.053e-05,0.0,0 STARLINK-4170,1 53140U 22083J   23288.83740554  .00004053  00000-0  27257-3 0  9995,2 53140  53.2162 145.9748 0001292  91.1418 268.9722 15.08843990 69626,6917.868,95.437,540.627,538.839,0.0
53140.0,STARLINK-4170,PAYLOAD,2023-10-15 21:41:14,15.0884593,0.0001234,53.216,145.6777,92.9703,267.143,0.00037358,5.664e-05,0.0,0 STARLINK-4170,1 53140U 22083J   23288.90364516  .00005664  00000-0  37358-3 0  9995,2 53140  53.2160 145.6777 0001234  92.9703 267.1430 15.08845930 69000,6917.862,95.437,540.581,538.874,0.0
